[{"OBJECT_NAME":"OBJECT H","OBJECT_ID":"2025-055H","EPOCH":"2026-03-09T23:29:50.051328","MEAN_MOTION":15.30330066,"ECCENTRICITY":0.00075967,"INCLINATION":97.636,"RA_OF_ASC_NODE":211.9572,"ARG_OF_PERICENTER":140.4354,"MEAN_ANOMALY":219.7441,"EPHEMERIS_TYPE":0,"CLASSIFICATION_TYPE":"U","NORAD_CAT_ID":63298,"ELEMENT_SET_NO":999,"REV_AT_EPOCH":5423,"BSTAR":0.0015582864,"MEAN_MOTION_DOT":0.00045901,"MEAN_MOTION_DDOT":0},{"OBJECT_NAME":"STARLINK-34801","OBJECT_ID":"2025-235U","EPOCH":"2026-03-09T22:00:05.406336","MEAN_MOTION":15.30185572,"ECCENTRICITY":0.00010487,"INCLINATION":53.1567,"RA_OF_ASC_NODE":244.3977,"ARG_OF_PERICENTER":57.3217,"MEAN_ANOMALY":302.7885,"EPHEMERIS_TYPE":0,"CLASSIFICATION_TYPE":"U","NORAD_CAT_ID":66076,"ELEMENT_SET_NO":999,"REV_AT_EPOCH":2295,"BSTAR":0.0012371491,"MEAN_MOTION_DOT":0.00036445,"MEAN_MOTION_DDOT":0}]
